[{"OBJECT_NAME":"RESURS-P 5","OBJECT_ID":"2024-250A","EPOCH":"2026-03-09T23:31:56.908992","MEAN_MOTION":15.32839945,"ECCENTRICITY":0.00026027,"INCLINATION":97.276,"RA_OF_ASC_NODE":355.9792,"ARG_OF_PERICENTER":63.1234,"MEAN_ANOMALY":297.0274,"EPHEMERIS_TYPE":0,"CLASSIFICATION_TYPE":"U","NORAD_CAT_ID":62430,"ELEMENT_SET_NO":999,"REV_AT_EPOCH":6735,"BSTAR":0.00015600887,"MEAN_MOTION_DOT":4.871e-5,"MEAN_MOTION_DDOT":0},{"OBJECT_NAME":"STARLINK-34433","OBJECT_ID":"2025-130L","EPOCH":"2026-03-09T18:53:34.534464","MEAN_MOTION":15.30207837,"ECCENTRICITY":0.00014636,"INCLINATION":53.1605,"RA_OF_ASC_NODE":88.3913,"ARG_OF_PERICENTER":74.1491,"MEAN_ANOMALY":285.9671,"EPHEMERIS_TYPE":0,"CLASSIFICATION_TYPE":"U","NORAD_CAT_ID":64448,"ELEMENT_SET_NO":999,"REV_AT_EPOCH":4071,"BSTAR":0.00078131869,"MEAN_MOTION_DOT":0.00022858,"MEAN_MOTION_DDOT":0}]
